{"type": "FeatureCollection", "features": [{"id": "0", "type": "Feature", "properties": {}, "geometry": {"type": "Polygon", "coordinates": [[[-78.21918487640578, 2.937516198401641, 0.0], [-78.20926667794346, 2.942321285727028, 0.0], [-78.21671297404905, 2.933271416065951, 0.0], [-78.21918487640578, 2.937516198401641, 0.0]]]}}, {"id": "1", "type": "Feature", "properties": {}, "geometry": {"type": "Polygon", "coordinates": [[[-78.18848417868136, 2.9850697573743967, 0.0], [-78.17508695760927, 2.959566604727775, 0.0], [-78.20293423625091, 2.9347322036705554, 0.0], [-78.18848417868136, 2.9850697573743967, 0.0]]]}}, {"id": "2", "type": "Feature", "properties": {}, "geometry": {"type": "Polygon", "coordinates": [[[-71.6659967108748, 12.4567920629831, 0.0], [-71.27365192460022, 12.338162677144476, 0.0], [-71.11614078413481, 12.034736334318692, 0.0], [-71.32817547658722, 11.921662074457432, 0.0], [-71.32334282751721, 11.83206560825394, 0.0], [-71.97150093852896, 11.645977675186879, 0.0], [-72.24941648387967, 11.140186007935826, 0.0], [-72.49764988685197, 11.085867344455576, 0.0], [-72.9008877246964, 10.437492019821665, 0.0], [-72.9877723834933, 9.917868229308755, 0.0], [-72.94284474365871, 9.834556169154396, 0.0], [-73.37141325137229, 9.170714588352729, 0.0], [-73.17698151385773, 9.17663692858897, 0.0], [-73.00940538661004, 9.290846667402176, 0.0], [-72.9483972132424, 9.092332230663315, 0.0], [-72.76580917935863, 9.105603006055162, 0.0], [-72.65478619575438, 8.614276838619325, 0.0], [-72.38012162646157, 8.310373014517566, 0.0], [-72.34713392630434, 8.01638469615731, 0.0], [-72.48753031936494, 7.944232812057217, 0.0], [-72.47513691880081, 7.487210581815951, 0.0], [-72.42859298512623, 7.4023850953399215, 0.0], [-72.1944500274926, 7.383795744892778, 0.0], [-72.04681214356187, 7.039170949130013, 0.0], [-71.13198863819079, 7.032918647064895, 0.0], [-71.023823060409, 6.973901641583664, 0.0], [-70.6872143176107, 7.104380670206736, 0.0], [-70.32238755062313, 6.93456794531206, 0.0], [-70.11939348512671, 6.979309176102568, 0.0], [-69.42755517215812, 6.107296933682592, 0.0], [-69.23747668015656, 6.079873469034343, 0.0], [-69.04617752956158, 6.221698218619686, 0.0], [-68.64484499072512, 6.129152468714532, 0.0], [-68.02753796618535, 6.196109169501962, 0.0], [-67.81025956731385, 6.324303971070148, 0.0], [-67.45829438597077, 6.196090017335197, 0.0], [-67.49356016796254, 6.12804968741175, 0.0], [-67.41006654282519, 5.99455991898746, 0.0], [-67.59735996856608, 5.8277518356743006, 0.0], [-67.6248561518814, 5.47620324634579, 0.0], [-67.84951035732324, 5.30395970703962, 0.0], [-67.85759338962966, 4.531178461879162, 0.0], [-67.63442655825801, 3.785550007373705, 0.0], [-67.50128592252581, 3.7674487923612587, 0.0], [-67.31078462223857, 3.3778933646408906, 0.0], [-67.8628293545643, 2.86486568629518, 0.0], [-67.86411064815655, 2.789472142228172, 0.0], [-67.6170419759685, 2.813204499615261, 0.0], [-67.56189595606133, 2.655785282873471, 0.0], [-67.48673697090788, 2.666971572679033, 0.0], [-67.21619751301341, 2.392424701019945, 0.0], [-67.2214030344415, 2.252466192171923, 0.0], [-67.10802160643064, 2.1193043362070565, 0.0], [-67.122995551475, 1.9768858814793369, 0.0], [-66.84774241073826, 1.3352683041456337, 0.0], [-66.85055243935729, 1.22359709780539, 0.0], [-67.0866949369132, 1.1670276504584502, 0.0], [-67.15383636825905, 1.8314970910657185, 0.0], [-67.33083012392125, 1.9415745620537408, 0.0], [-67.39738738024484, 2.2297267151268056, 0.0], [-67.60851871730995, 2.0359215347717883, 0.0], [-67.81385080675366, 1.972596604588761, 0.0], [-67.9016232254451, 1.8116520495527066, 0.0], [-68.19583003102899, 2.0347912027400477, 0.0], [-68.28527601980339, 1.829872515087386, 0.0], [-68.16443925649904, 1.729367761475081, 0.0], [-69.5343782984331, 1.7762337338296867, 0.0], [-69.8403852203455, 1.718779579503313, 0.0], [-69.84127267579902, 1.0792852170415312, 0.0], [-69.24441020002423, 1.0563683050068746, 0.0], [-69.11564348672265, 0.6439701026065718, 0.0], [-69.35303895853068, 0.6137670099083403, 0.0], [-69.48097955296171, 0.7349199790295252, 0.0], [-69.60585254597014, 0.6130567287811969, 0.0], [-69.67175097897295, 0.6679704894838235, 0.0], [-69.80269991695192, 0.5715104819801834, 0.0], [-70.04075458777967, 0.5636580117623957, 0.0], [-70.01887393702917, -0.20661322341071978, 0.0], [-69.61087501775123, -0.5007648749705744, 0.0], [-69.56203622946785, -0.6359299836215792, 0.0], [-69.62476582864628, -0.7454011163708819, 0.0], [-69.39555082218531, -1.1303194145777806, 0.0], [-69.9409829492287, -4.227883515979237, 0.0], [-70.29181707234447, -3.8197670433507613, 0.0], [-70.51487331162488, -3.8807500016223533, 0.0], [-70.70833986274437, -3.792710226511904, 0.0], [-70.06328998624781, -2.7656521441696973, 0.0], [-70.09027207155118, -2.6450621388227558, 0.0], [-70.13758233078705, -2.7014581475090993, 0.0], [-70.2526666872896, -2.5448392051724924, 0.0], [-70.34983830509614, -2.5714139041041872, 0.0], [-70.29921631640245, -2.5037950902380066, 0.0], [-70.43102556047562, -2.5257041200423473, 0.0], [-70.56496055154142, -2.417616327361317, 0.0], [-70.62438720519512, -2.477951340787782, 0.0], [-70.66629884163257, -2.3510974365220254, 0.0], [-70.98083839578356, -2.2091150430116255, 0.0], [-70.99580767019073, -2.3041884989910546, 0.0], [-71.05148349089265, -2.2634801662693036, 0.0], [-71.17403139306832, -2.3780230275601695, 0.0], [-71.28837304014306, -2.338129501724411, 0.0], [-71.39513350853555, -2.4081141014200718, 0.0], [-71.45524611664963, -2.275550757271777, 0.0], [-71.49776353140997, -2.351324459812898, 0.0], [-71.51837792694272, -2.249064830371653, 0.0], [-71.72103409894773, -2.2248699642350966, 0.0], [-71.728109051124, -2.140291299126716, 0.0], [-71.9235159093942, -2.3772515810534984, 0.0], [-72.05651391229787, -2.336887355291516, 0.0], [-72.16116556769606, -2.4777021747646395, 0.0], [-72.1750254768155, -2.4242568806796476, 0.0], [-72.3726052791249, -2.4889536278283155, 0.0], [-72.40804745479124, -2.4137684743690717, 0.0], [-72.63261700505629, -2.356561403694872, 0.0], [-72.67937193466548, -2.4499722257935295, 0.0], [-72.77674503524042, -2.384990783535767, 0.0], [-72.93434627750861, -2.4550441579354683, 0.0], [-72.97613585007659, -2.341712934602525, 0.0], [-73.06082842190443, -2.3589291307326907, 0.0], [-73.16542065400373, -2.235593575035469, 0.0], [-73.06788782432444, -2.093532937999009, 0.0], [-73.14697278832541, -1.8035676246857975, 0.0], [-73.21891774564874, -1.7479088012388366, 0.0], [-73.31563619850712, -1.827181791623233, 0.0], [-73.53413957729931, -1.705058640389265, 0.0], [-73.45691275236473, -1.5708409145730136, 0.0], [-73.58711992370627, -1.423093068366517, 0.0], [-73.56865699291951, -1.3226161805690353, 0.0], [-73.7437669294616, -1.1999877887476706, 0.0], [-73.76857737307661, -1.2600499672123602, 0.0], [-73.86236573786306, -1.2287868074695152, 0.0], [-74.02245329195387, -1.0039620108909466, 0.0], [-74.06237038001296, -1.0534137016260405, 0.0], [-74.27116371718888, -0.9796527182770707, 0.0], [-74.31965667156706, -0.87976106542056, 0.0], [-74.24401883917362, -0.8190624398689574, 0.0], [-74.3735964442733, -0.7319554858206441, 0.0], [-74.39070880151647, -0.5455850851755751, 0.0], [-74.61094657736292, -0.34973929218943395, 0.0], [-74.7266917438754, -0.343769331844457, 0.0], [-74.79518363987134, -0.18746638920148323, 0.0], [-74.8871083407411, -0.24200717946444195, 0.0], [-75.17978645837717, -0.04024749769723519, 0.0], [-75.27558721970098, -0.12522990154326252, 0.0], [-75.80455507990979, 0.050372050096327795, 0.0], [-76.00515611399565, 0.2966482216920314, 0.0], [-76.27782488699667, 0.4373171734130371, 0.0], [-76.40998827324017, 0.3808860207308434, 0.0], [-76.40724107343053, 0.24492700119689473, 0.0], [-76.58873302888388, 0.2188742846173582, 0.0], [-76.73382744027309, 0.2889652089100874, 0.0], [-77.07743843371689, 0.2846870188584572, 0.0], [-77.1650610305272, 0.38897714616251555, 0.0], [-77.52716410558637, 0.40032643434797405, 0.0], [-77.4808940431816, 0.6571039028245187, 0.0], [-77.6588642680818, 0.7087141909974803, 0.0], [-77.66491992914597, 0.8180269434139013, 0.0], [-77.92263300995492, 0.8134174002935716, 0.0], [-78.18770682183131, 0.9393702046373879, 0.0], [-78.31138897417972, 1.1912902921521076, 0.0], [-78.42029851690599, 1.1384304213687066, 0.0], [-78.54096937046, 1.191657442576647, 0.0], [-79.00777495502668, 1.6508016273236112, 0.0], [-78.87003575056097, 1.795466995054928, 0.0], [-78.82215815117512, 1.8244036616943704, 0.0], [-78.72698197915204, 1.7370754684169132, 0.0], [-78.71714730448079, 1.7936358602081715, 0.0], [-78.55561172930004, 1.756006618560007, 0.0], [-78.54697332296966, 1.8880663400028093, 0.0], [-78.602295342541, 1.993930093236327, 0.0], [-78.67206325950474, 1.9752879291886045, 0.0], [-78.71598172210578, 2.163418794541062, 0.0], [-78.54698314237214, 2.4928389313041466, 0.0], [-78.32907284781763, 2.656589690423722, 0.0], [-78.14674020513615, 2.6834942768336063, 0.0], [-78.07134223198415, 2.6136812914661975, 0.0], [-77.78795625310448, 2.6939352337944857, 0.0], [-77.65736833098453, 3.0654972899156703, 0.0], [-77.33414055912364, 3.425156076042798, 0.0], [-77.3550249164069, 3.5306317201775834, 0.0], [-77.17475644079599, 3.62573731010271, 0.0], [-77.19944593535828, 3.752157788275798, 0.0], [-77.0513357360976, 3.8793837722490676, 0.0], [-77.28160719800125, 3.8394604682827604, 0.0], [-77.52611389461242, 4.1273911414310005, 0.0], [-77.5179153842809, 4.274297642842331, 0.0], [-77.42088852036628, 4.286123038531606, 0.0], [-77.33558982038778, 4.4261284665269836, 0.0], [-77.29911500353366, 4.7482007168237494, 0.0], [-77.38340163635695, 5.421589441249614, 0.0], [-77.5394729028631, 5.481341879466296, 0.0], [-77.49472580717381, 5.602752272227401, 0.0], [-77.34089359978141, 5.61825442609689, 0.0], [-77.24166840650462, 5.774473197532204, 0.0], [-77.4835660805379, 6.193058365476205, 0.0], [-77.47405604839317, 6.297614872173857, 0.0], [-77.3966373681781, 6.237577523785123, 0.0], [-77.3264584288053, 6.549430243077854, 0.0], [-77.40621350802178, 6.685872341162979, 0.0], [-77.52678997634409, 6.647019369919792, 0.0], [-77.56846917360139, 6.797746944895605, 0.0], [-77.70216424133187, 6.842469958729603, 0.0], [-77.68027200158924, 7.037936178441524, 0.0], [-77.8831430164481, 7.217473299854889, 0.0], [-77.8181846430434, 7.472481230360754, 0.0], [-77.70146396877189, 7.506937028238562, 0.0], [-77.72857940019523, 7.700039554925904, 0.0], [-77.56485769408377, 7.507785361548494, 0.0], [-77.34222440865555, 7.76569638720153, 0.0], [-77.3348150954736, 7.89364017082208, 0.0], [-77.13937791951199, 7.954197815540021, 0.0], [-77.44770016924126, 8.471631432853782, 0.0], [-77.40892341093968, 8.645401055410183, 0.0], [-77.3576622619693, 8.675371583832884, 0.0], [-77.03607609832466, 8.25239178338071, 0.0], [-76.96600695910197, 8.256476083195492, 0.0], [-76.95142996085353, 8.253426516914551, 0.0], [-76.94343725540708, 8.24885633017994, 0.0], [-76.93266525979527, 8.092808570994901, 0.0], [-76.89191106661976, 8.131193324142696, 0.0], [-76.83520144787072, 8.138568402989138, 0.0], [-76.83382867779089, 8.13280727138308, 0.0], [-76.8233658378259, 8.136915133554934, 0.0], [-76.80740584745888, 8.128675552438928, 0.0], [-76.8371735633027, 8.018974853215777, 0.0], [-76.9248884541839, 8.025121665254076, 0.0], [-76.92224800068236, 7.91759394563716, 0.0], [-76.75662602493637, 7.914958846900053, 0.0], [-76.75863115504931, 8.395033246883532, 0.0], [-76.93790710944549, 8.55332747645539, 0.0], [-76.33344802125933, 8.923100851985037, 0.0], [-76.17017728817657, 9.22894325835166, 0.0], [-75.94839914339232, 9.444388090472575, 0.0], [-75.62835148994718, 9.435407435269807, 0.0], [-75.57754614600952, 9.634749022019323, 0.0], [-75.70409717305789, 9.699704726852467, 0.0], [-75.52243159257429, 10.238858036025931, 0.0], [-75.66924932339586, 10.137542588780635, 0.0], [-75.70352583652036, 10.14143340807814, 0.0], [-75.50257960713364, 10.301796070983096, 0.0], [-75.5664226399873, 10.39674846367079, 0.0], [-75.39559597757221, 10.681788376615437, 0.0], [-74.92151519071753, 11.045907486640045, 0.0], [-74.83414510952959, 11.035844819250395, 0.0], [-74.85291837064196, 11.10679214308293, 0.0], [-74.29134785688466, 10.990397107828521, 0.0], [-74.21408197998957, 11.073911306500442, 0.0], [-74.24161879302325, 11.22168131385432, 0.0], [-74.1055020642832, 11.348653570037996, 0.0], [-73.78869389538067, 11.255938370033425, 0.0], [-73.27743222465391, 11.28508319491678, 0.0], [-72.76898114829554, 11.679002098992742, 0.0], [-72.22898564941495, 11.887677594991763, 0.0], [-72.13886532243183, 12.106212180389356, 0.0], [-72.1785819515648, 12.216925228000653, 0.0], [-71.96093870883756, 12.258453319665419, 0.0], [-72.00060948856732, 12.186307148492832, 0.0], [-71.93005674883287, 12.151088796828104, 0.0], [-71.86154412114013, 12.217268097541012, 0.0], [-71.95527674480284, 12.273388072827265, 0.0], [-71.72255920446877, 12.410922064681245, 0.0], [-71.72173751675224, 12.370602430971319, 0.0], [-71.70494563249939, 12.375555220560818, 0.0], [-71.7021235200474, 12.3591520010897, 0.0], [-71.68957050007702, 12.360476522117763, 0.0], [-71.63032797104366, 12.414135032315471, 0.0], [-71.736028742864, 12.41223850955876, 0.0], [-71.6659967108748, 12.4567920629831, 0.0]]]}}, {"id": "3", "type": "Feature", "properties": {}, "geometry": {"type": "Polygon", "coordinates": [[[-81.73233299232747, 12.555137795522759, 0.0], [-81.68670842214509, 12.580878902692145, 0.0], [-81.73022100877249, 12.480368463365092, 0.0], [-81.73233299232747, 12.555137795522759, 0.0]]]}}, {"id": "4", "type": "Feature", "properties": {}, "geometry": {"type": "Polygon", "coordinates": [[[-81.38911162845145, 13.320743066657375, 0.0], [-81.35445767933548, 13.377299828571955, 0.0], [-81.34971748463127, 13.356871195645192, 0.0], [-81.38911162845145, 13.320743066657375, 0.0]]]}}, {"id": "5", "type": "Feature", "properties": {}, "geometry": {"type": "Polygon", "coordinates": [[[-81.37969138217565, 13.391458202942916, 0.0], [-81.36753702387968, 13.38605366859969, 0.0], [-81.37674356093952, 13.381498328599763, 0.0], [-81.37969138217565, 13.391458202942916, 0.0]]]}}]}