{"type": "FeatureCollection", "features": [{"id": "0", "type": "Feature", "properties": {"DPTO_CNMBR": "ANTIOQUIA"}, "geometry": {"type": "Polygon", "coordinates": [[[-74.83058344599296, 8.199945329800284], [-74.52045062271115, 7.9032878358558145], [-74.47646716356995, 7.682159137806141], [-74.56412940101342, 7.640252021661301], [-74.58870609777956, 7.4454780948860595], [-74.49096935387233, 7.343460020693816], [-74.41244871629385, 7.4603508190934384], [-74.31982722798273, 7.441404460884797], [-74.4029110722494, 7.330232803014088], [-74.35569575465965, 7.009898841837065], [-74.24576897761854, 7.002673942156507], [-73.91585233465868, 7.295583789888819], [-73.88221009223093, 7.010241612600408], [-74.40680612554866, 6.591356234853515], [-74.36949796213413, 6.412217322747914], [-74.57341573417841, 6.215661242274712], [-74.58538663778212, 5.903061804936818], [-74.73057134829322, 5.7050543694482565], [-74.99330102797047, 5.715334122517191], [-75.27800338998229, 5.418633563807307], [-75.37689255924083, 5.674191475818333], [-75.5988103778209, 5.737477845495989], [-75.57102905447196, 5.520572496937503], [-75.73026679923687, 5.564098976909913], [-75.90517773019413, 5.4799187080182525], [-76.08695398999843, 5.688642278793847], [-76.05100398763871, 5.9508322312805175], [-76.1726515806759, 6.017391195805161], [-76.2094680460601, 6.184548608239762], [-76.7169426899856, 6.171485179428415], [-76.76798500856619, 6.477991454274687], [-76.96412257900002, 6.680883390081421], [-76.97030494623618, 6.812734932467501], [-76.78553793794046, 6.877529086210503], [-76.8346370816168, 6.999268600981802], [-76.5713087441586, 6.979676932368059], [-76.48424956729328, 7.132855555220325], [-76.6618570781068, 7.44917796807668], [-76.93619494235288, 7.583409218274873], [-77.12272312051495, 7.789390372475641], [-76.93907106598499, 8.062839623294641], [-76.95559982130011, 8.122733718769322], [-76.94933258660306, 8.172336841663217], [-76.96651136722303, 8.19178928190583], [-76.9801897512822, 8.255281794271037], [-76.91025082535037, 8.19080594688867], [-76.93186905132885, 8.09152918647518], [-76.89356208421285, 8.13230287447427], [-76.82933623476185, 8.141120292324866], [-76.81270599580284, 8.131658561854522], [-76.83418913177323, 8.019827308267564], [-76.92482717969084, 8.024643583297177], [-76.92224800069476, 7.917593947443325], [-76.76818461224318, 7.910304692404083], [-76.72621804983908, 7.9829792763573035], [-76.7591082317331, 8.396401716658305], [-76.93826178906114, 8.553369862394623], [-76.4136045809241, 8.873973718925829], [-76.41601217064486, 8.74917483165959], [-76.22208873629695, 8.57178193511134], [-76.18042894802866, 8.396064368082715], [-76.42497153773364, 8.074293809258238], [-76.49693298428315, 7.747755287703367], [-76.51453012836677, 7.58666464908056], [-76.38092539368182, 7.3917098220694335], [-75.84549601462143, 7.347087268941004], [-75.76525372317326, 7.601943785935338], [-75.55522432798264, 7.624305806165769], [-75.46556988821354, 7.827691737051877], [-75.22676154898134, 8.06297671490124], [-74.92792783739397, 8.07459763326713], [-74.83058344599296, 8.199945329800284]]]}}, {"id": "1", "type": "Feature", "properties": {"DPTO_CNMBR": "ATL\u00c1NTICO"}, "geometry": {"type": "Polygon", "coordinates": [[[-74.85186053248921, 11.105367258036193], [-74.71838811190534, 10.909236331368962], [-74.72421057486373, 10.608704047687958], [-74.9081236280627, 10.253286073645548], [-75.23374570367427, 10.479513751663125], [-75.24952656115053, 10.72296511740021], [-74.85186053248921, 11.105367258036193]]]}}, {"id": "2", "type": "Feature", "properties": {"DPTO_CNMBR": "BOGOT\u00c1, D.C."}, "geometry": {"type": "Polygon", "coordinates": [[[-74.15067459761993, 4.004849073672745], [-74.44634632029005, 3.735952596124699], [-74.32988660983288, 4.130540258876114], [-74.24564163564081, 4.103247642605443], [-74.20426913877775, 4.239706635329581], [-74.22256867367658, 4.629401792930408], [-74.04986066498938, 4.8350407368120045], [-73.98612579374378, 4.629074973781899], [-74.11214742699319, 4.433134908949936], [-74.15067459761993, 4.004849073672745]]]}}, {"id": "3", "type": "Feature", "properties": {"DPTO_CNMBR": "BOL\u00cdVAR"}, "geometry": {"type": "MultiPolygon", "coordinates": [[[[-76.17607170952869, 9.39886184571445], [-76.17873873524253, 9.37803041048559], [-76.19063117737493, 9.384905576418754], [-76.17607170952869, 9.39886184571445]]], [[[-75.87547031706549, 9.783176652534884], [-75.86889348697103, 9.780616352609874], [-75.87606042351749, 9.780083352442997], [-75.87547031706549, 9.783176652534884]]], [[[-75.85920841793211, 9.786494210807076], [-75.85923433430818, 9.785300490463799], [-75.85994932969824, 9.786280607989871], [-75.85920841793211, 9.786494210807076]]], [[[-75.74887860210245, 10.182689269927144], [-75.72374673461263, 10.181271745503183], [-75.7474937562606, 10.172372561974369], [-75.74887860210245, 10.182689269927144]]], [[[-75.59341055789172, 10.347672711120278], [-75.53829986067385, 10.349165108543929], [-75.58154166100292, 10.317903700288277], [-75.59341055789172, 10.347672711120278]]], [[[-75.2555463797148, 10.799602462909178], [-75.23374570367427, 10.479513751663125], [-74.96459544259842, 10.325544359817705], [-74.94366739810955, 10.124427454824842], [-74.7882969692095, 10.011257989631043], [-74.88236986421887, 9.872851248637119], [-74.78764598468425, 9.69686482275994], [-74.80569882944079, 9.447455071008624], [-74.6724061863456, 9.413078677403215], [-74.5167789009538, 9.234521723305345], [-74.4355747786818, 9.274291698528778], [-74.29645385073897, 9.202676295524254], [-74.13746760105603, 9.028731709807293], [-73.89395999363515, 8.977930378045762], [-73.79527715713601, 8.81677194732782], [-73.75026665115459, 8.27187963995813], [-73.8716801838405, 8.018769998241527], [-73.79775938532751, 7.650859330961223], [-73.91308097647052, 7.493596649853109], [-73.91585233465868, 7.295583789888819], [-74.2472931308909, 7.001971003479511], [-74.35569575465965, 7.009898841837065], [-74.40909940524894, 7.194124392163443], [-74.3229105960897, 7.446816856696226], [-74.41244871629385, 7.4603508190934384], [-74.49096935387233, 7.343460020693816], [-74.59842158798278, 7.461902739860096], [-74.56108381947449, 7.646454134363625], [-74.47646716356995, 7.682159137806141], [-74.53891569904577, 7.946922180311837], [-74.83323049474778, 8.21230971144073], [-74.76435049508704, 8.294539112272718], [-74.65348785129733, 8.278995640856023], [-74.539732084409, 8.426392518831106], [-74.6107338178471, 8.755937903893646], [-74.53965931483242, 8.805290830683527], [-74.63936084874453, 8.977455863083923], [-74.90302755021511, 9.16348223506659], [-74.95051410423602, 9.347947442909659], [-74.8907783287764, 9.430964062934498], [-75.03222927112988, 9.46656875409485], [-75.01239443284149, 9.528293675615135], [-75.16450565806551, 9.646466148228438], [-75.37437777034295, 9.630769875010738], [-75.33826145358205, 9.828226993235099], [-75.54332273709407, 10.040149364389011], [-75.49747758860737, 10.145482637358937], [-75.57362449396614, 10.086428059662802], [-75.52319464845, 10.236981608825388], [-75.66904340867356, 10.137605188620725], [-75.70319208331249, 10.140973933384899], [-75.50312616057342, 10.3010879436215], [-75.56642402537982, 10.396584405533522], [-75.51267068987288, 10.571081515541788], [-75.27771658029684, 10.712877520359658], [-75.2555463797148, 10.799602462909178]]]]}}, {"id": "4", "type": "Feature", "properties": {"DPTO_CNMBR": "BOYAC\u00c1"}, "geometry": {"type": "Polygon", "coordinates": [[[-72.27652400981475, 7.012792371957142], [-71.94885391674823, 7.011323102168411], [-72.10012238835775, 6.7471937375410045], [-72.12890417191939, 6.52494405413955], [-72.3540200671553, 6.343542415210116], [-72.41884360920372, 6.187812608324453], [-72.32120409270165, 6.088204321545571], [-72.3277698111388, 5.901350648473155], [-72.41554955787133, 5.904011359948963], [-72.46306759964811, 5.849102678544923], [-72.22190447479267, 5.672581454965679], [-72.30089610752131, 5.505972368869014], [-72.42090449598903, 5.563237950318696], [-72.70056665211467, 5.273278447115283], [-72.79832219486875, 5.380142863812507], [-72.88271031512782, 5.3632279454705], [-72.97389066850708, 5.1503644038818], [-72.90382123404608, 5.067931975321077], [-73.03051301770532, 4.982305619429534], [-73.10420664450298, 4.660494027480827], [-73.30401764165494, 4.7295886551689135], [-73.40200349098535, 4.879933498997383], [-73.53867728800667, 4.896568796508392], [-73.4772036251301, 5.148094483200276], [-73.59272405199104, 5.398848536221723], [-73.80467054394256, 5.571397783991897], [-74.020968680239, 5.366294197008259], [-74.0969318094132, 5.470635295597363], [-74.25387355731101, 5.487615956494594], [-74.33309655520686, 5.837042839658952], [-74.43091355302174, 5.758013705599045], [-74.66102470039118, 5.752378123107085], [-74.52657102176477, 6.273641081077511], [-74.38305881196476, 6.040277892274798], [-74.25871622940555, 6.065524407539222], [-74.2660811416258, 5.8345907902023635], [-74.18041643897207, 5.911088567951176], [-73.98261122072407, 5.72091016733709], [-73.71438250131068, 5.781700866534505], [-73.64400972451064, 5.715205777726762], [-73.63590028353633, 5.911162379573609], [-73.49741541629149, 6.108032160496235], [-73.3707086981475, 6.00523217468518], [-73.45690332702334, 5.890356059578122], [-73.43080930913771, 5.767068564808079], [-73.35147171300714, 5.872571855329396], [-73.20495327162718, 5.8265824863457905], [-73.19931453968879, 6.003134278261324], [-73.10077675512352, 5.962260960215137], [-73.03200938492172, 6.023000190556367], [-73.01124344652126, 5.963105015400259], [-72.74467753422313, 6.22918219933801], [-72.72488353531399, 6.456701817603755], [-72.80858057432755, 6.559527811055607], [-72.64906981042084, 6.436400567207862], [-72.53455119001961, 6.494257930875061], [-72.49660810789658, 6.92152567041211], [-72.39232798527429, 6.872214493494193], [-72.27652400981475, 7.012792371957142]]]}}, {"id": "5", "type": "Feature", "properties": {"DPTO_CNMBR": "CALDAS"}, "geometry": {"type": "Polygon", "coordinates": [[[-74.66496042578315, 5.768536586291653], [-74.64934777967075, 5.442932352483659], [-74.73427575880349, 5.2868647270234685], [-74.93937696422027, 5.313030420809293], [-75.11623493045184, 5.160564423096889], [-75.28790829407131, 5.13830651227015], [-75.37549906941328, 4.802684967862625], [-75.48008524068011, 4.916464206465852], [-75.70238478519099, 4.94550030023169], [-75.7468129703861, 5.04681902086926], [-75.81480708580507, 4.919438479209683], [-75.89216009328707, 4.961530422752876], [-75.82366414416721, 5.270118110910601], [-75.64814603467964, 5.307572010499329], [-75.72522650906302, 5.3971415395227185], [-75.86067798432961, 5.371708954196803], [-75.86540230112804, 5.501869118714779], [-75.73026679923687, 5.564098976909913], [-75.57102905447196, 5.520572496937503], [-75.59926247189264, 5.737311281796545], [-75.37689255924083, 5.674191475818333], [-75.27592951404799, 5.41855838875581], [-74.99330102797047, 5.715334122517191], [-74.77154407204056, 5.6898139356937], [-74.66496042578315, 5.768536586291653]]]}}, {"id": "6", "type": "Feature", "properties": {"DPTO_CNMBR": "CAQUET\u00c1"}, "geometry": {"type": "Polygon", "coordinates": [[[-73.66002928237148, 1.6120620790211453], [-73.3974986905451, 1.1530911679729892], [-73.14452052899213, 0.919930551259971], [-73.00972821924545, 0.910544677868135], [-72.86718942022588, 1.0244616440984193], [-72.8592497624514, 1.1647757754211883], [-72.64737331204525, 1.1807956174186247], [-72.455681890194, 1.0798636655422427], [-72.22009178929876, 0.7056003001727015], [-72.12670091813513, 0.7401220027014013], [-71.99793379551129, 0.6573939841142573], [-71.85100791610854, 0.3503719247062021], [-71.76696121047722, 0.3696001485654505], [-71.53328035402923, 0.1203685787501643], [-71.4735133001812, 0.184987072448345], [-71.33524724251068, 0.15500247510359452], [-71.2633668336329, 0.04193311586204062], [-71.57721976059675, 0.015743613682271763], [-71.70482631317077, -0.06729385070350659], [-71.74299745484967, -0.2523551789543698], [-72.04184957591876, -0.2691676164467249], [-72.30562545332737, -0.6509808051817813], [-72.42496999956448, -0.5622897966719128], [-72.56280569160093, -0.7056869580560576], [-72.7497288123079, -0.5549956259549802], [-72.91727827014728, -0.6155095169036185], [-73.01565665598758, -0.526867364474903], [-73.07479201480858, -0.6212888004765591], [-73.20675702654941, -0.6256419013922702], [-73.33187629331837, -0.5061004528792741], [-73.56835520385658, -0.5168343140156131], [-73.71366235393047, -0.3826466099673488], [-73.81848494156358, -0.411188422950637], [-74.11156896067361, -0.23507611682122642], [-74.18144378696692, -0.2639430205299394], [-74.34186599904456, -0.10965434500656027], [-74.63176806989956, -0.08845681838506363], [-74.68056156461071, 0.165404297258912], [-75.00388804270553, 0.27320301962261956], [-74.98619709726955, 0.41850724979463755], [-75.10117750596272, 0.5119399433222516], [-75.21767048336216, 0.48745840358957476], [-75.26560146840855, 0.7256376464760028], [-75.5080442819437, 0.768164220535378], [-75.63635693877808, 0.8767383912958627], [-75.76227979689972, 0.8377620372201396], [-75.9251843021183, 1.0342575492386528], [-76.30272264159454, 1.1767157194831117], [-76.1697468144254, 1.5879815782657571], [-76.03437752911339, 1.582767256402197], [-75.73714924258469, 1.782464397710368], [-75.18055808790893, 2.507708337570234], [-75.14743086060976, 2.7215337877432972], [-74.89920686868618, 2.964148174347548], [-74.67131314938081, 2.887823287961456], [-74.5888460276383, 2.6700216888777586], [-74.74871182396042, 2.2817525460770964], [-74.59949115269512, 2.193763289445528], [-74.65304574828185, 2.0658583534894848], [-74.56394516727288, 1.8484981128640652], [-74.21536365153563, 1.7666636933152315], [-73.98652700673895, 1.6050964785290942], [-73.66002928237148, 1.6120620790211453]]]}}, {"id": "7", "type": "Feature", "properties": {"DPTO_CNMBR": "CAUCA"}, "geometry": {"type": "Polygon", "coordinates": [[[-76.0554187775828, 3.223351859904799], [-76.1054113956399, 3.100556553832343], [-76.02899347326019, 2.9404902609210857], [-75.74783053444948, 2.719200404134836], [-75.8615330243941, 2.427904712719023], [-75.97721133669346, 2.5040408359184605], [-76.12021529007168, 2.39053261455326], [-76.14783691355366, 2.201315807171366], [-76.37376724890883, 2.2790893917811204], [-76.43091717272888, 2.12038771407472], [-76.5904648191785, 2.1075232294064943], [-76.59030684023314, 1.8681582457858394], [-76.37190640619228, 1.7425218971235732], [-76.37668635281915, 1.6639380621975735], [-76.2422543644461, 1.6830912899482189], [-76.14802450017191, 1.5448042785932368], [-76.30272264159454, 1.1767157194831117], [-76.07562541809841, 1.0267130177883845], [-76.42486877556117, 0.9602377971726195], [-76.56811972252802, 1.082572857081476], [-76.53740639383493, 1.2103396491987939], [-76.64574198235711, 1.4554046124037827], [-76.92074429439128, 1.3456886163771868], [-76.92892711464776, 1.500486126288164], [-76.83368053665448, 1.6097391296403245], [-76.93608470358915, 1.7290020567884214], [-77.3308799792018, 1.6815126932753823], [-77.20315946749075, 1.952037598694969], [-77.3335277321495, 2.0513616402088846], [-77.35557983336912, 2.260326190888731], [-77.45943429714421, 2.286177709965669], [-77.48794162211121, 2.195252600002367], [-77.73376750322538, 2.134042233065404], [-77.84108118997638, 2.180233525594444], [-77.92833815322004, 2.6404040269567095], [-77.78645152902695, 2.692484772940436], [-77.66691850179762, 3.0452575953720062], [-77.4313438824503, 3.253929255439698], [-77.2345010394335, 3.108079959970214], [-77.09839111252289, 3.185972449349519], [-76.9384859690658, 3.1139620387025535], [-76.90804959904082, 3.2013703755293665], [-76.77291308161308, 3.2337056816805982], [-76.73340928100912, 3.124887507526982], [-76.61071582329802, 3.091250747421873], [-76.5136065213359, 3.1203451875407606], [-76.4604211144062, 3.3289411581192048], [-76.0554187775828, 3.223351859904799]]]}}, {"id": "8", "type": "Feature", "properties": {"DPTO_CNMBR": "CESAR"}, "geometry": {"type": "Polygon", "coordinates": [[[-72.90075025528671, 10.436109720922335], [-72.91149246219668, 10.112440516485313], [-72.9991510961462, 9.92267096697094], [-72.94353714352702, 9.843127965673844], [-73.41165329347572, 9.154379651197779], [-73.41461794833603, 8.766029819865034], [-73.57658017269395, 8.505703014744823], [-73.47767132481064, 8.470115003941247], [-73.52999783665211, 8.38078982700522], [-73.44182709139172, 8.340884840167181], [-73.41439877057434, 8.459258384325848], [-73.34176510673366, 8.434682851026029], [-73.43536356218111, 8.145169770645186], [-73.27513375175401, 7.957765779888529], [-73.49083325812157, 7.6743694910756535], [-73.76345389159106, 7.767092052813115], [-73.67077797108188, 7.903500484211058], [-73.79142251395145, 8.102805377975663], [-73.7460043140757, 8.46205796148665], [-73.8733649001016, 8.91181527744853], [-73.79770706956279, 9.057355374481356], [-73.86662226161572, 9.182968076096387], [-73.96203268081719, 9.187675888269593], [-73.97809479370652, 9.389381326601365], [-74.1391599900713, 9.493779960621275], [-73.80326414884047, 9.636416579176275], [-73.80908906206024, 9.692059310483366], [-74.08297557971413, 10.067102800297906], [-74.0657292053216, 10.166521606934463], [-73.91707781388642, 10.378419480775943], [-73.56309699429852, 10.503811935151091], [-73.61688143942985, 10.644687932416991], [-73.5419073414705, 10.754718292631003], [-73.6387361825979, 10.802147143595137], [-73.47940666308263, 10.867173370476682], [-73.28885916742635, 10.862018105723848], [-73.27786011487345, 10.726125133375026], [-73.0827764748211, 10.650303087690773], [-73.18167432761618, 10.466279092167083], [-73.1443186534581, 10.398094297801567], [-72.90075025528671, 10.436109720922335]]]}}, {"id": "9", "type": "Feature", "properties": {"DPTO_CNMBR": "C\u00d3RDOBA"}, "geometry": {"type": "Polygon", "coordinates": [[[-75.70005160185885, 9.411748583222918], [-75.60936712887685, 9.280988187011157], [-75.4965714418939, 9.285696683093322], [-75.44885677527347, 9.140080696820792], [-75.2241369891925, 9.073111502395626], [-75.15610851506703, 8.943597351900124], [-75.37161046627679, 8.826524067703547], [-75.31436382227433, 8.502373040890955], [-75.18513926482078, 8.396640496901098], [-75.00572085652023, 8.522802905273226], [-74.92599402887281, 8.499607675187839], [-74.7809453925463, 8.277881791322491], [-74.92792783739397, 8.07459763326713], [-75.22676154898134, 8.06297671490124], [-75.60518048282299, 7.585517198660001], [-75.76525372317326, 7.601943785935338], [-75.84549601462143, 7.347087268941004], [-76.383933825047, 7.3922938435015615], [-76.51453012836677, 7.58666464908056], [-76.49663120475012, 7.7497155998552945], [-76.42497153773364, 8.074293809258238], [-76.18044527394913, 8.397311061061679], [-76.26605742503973, 8.638807097097963], [-76.4195659120544, 8.754994156170154], [-76.41702344196773, 8.88842882877414], [-75.94894476118074, 9.443820857000757], [-75.70005160185885, 9.411748583222918]]]}}, {"id": "10", "type": "Feature", "properties": {"DPTO_CNMBR": "CUNDINAMARCA"}, "geometry": {"type": "Polygon", "coordinates": [[[-73.05255695490268, 4.7363248049156335], [-73.13699564467822, 4.212838751574716], [-73.35364488227528, 4.321194294499418], [-73.55068104046151, 4.307821285109746], [-73.62189984911244, 4.562476822306415], [-73.80695654721353, 4.422154951985078], [-73.7428201619483, 4.197760350209291], [-74.13731024228636, 4.000358468984439], [-74.11214742699319, 4.433134908949936], [-73.98612579374378, 4.629074973781899], [-74.00562182229667, 4.821444858144771], [-74.08662543587238, 4.832491952159065], [-74.22354805874136, 4.625865438241178], [-74.17457276824562, 4.50712980354279], [-74.24564163564081, 4.103247642605443], [-74.32988660983288, 4.130540258876114], [-74.4526538097601, 3.730501192935906], [-74.45023019369809, 3.818993833005012], [-74.53945977473522, 3.8447749468559036], [-74.51885728294138, 4.240493218520332], [-74.68125929092571, 4.200886653285918], [-74.89062890234449, 4.28873399273229], [-74.7059433077893, 4.981370212874635], [-74.66102470039118, 5.752378123107085], [-74.43091355302174, 5.758013705599045], [-74.33309655520686, 5.837042839658952], [-74.25387355731101, 5.487615956494594], [-74.0969318094132, 5.470635295597363], [-74.020968680239, 5.366294197008259], [-73.80467054394256, 5.571397783991897], [-73.59272405199104, 5.398848536221723], [-73.4772036251301, 5.148094483200276], [-73.53867728800667, 4.896568796508392], [-73.40200349098535, 4.879933498997383], [-73.22094721611508, 4.676782012619496], [-73.10569753086024, 4.6597913328939455], [-73.05255695490268, 4.7363248049156335]]]}}, {"id": "11", "type": "Feature", "properties": {"DPTO_CNMBR": "CHOC\u00d3"}, "geometry": {"type": "Polygon", "coordinates": [[[-76.9801897512822, 8.255281794271037], [-76.93907106598499, 8.062839623294641], [-77.12213925380831, 7.788015846067932], [-76.93619494235288, 7.583409218274873], [-76.6618570781068, 7.44917796807668], [-76.48424956729328, 7.132855555220325], [-76.5713087441586, 6.979676932368059], [-76.8346370816168, 6.999268600981802], [-76.78553793794046, 6.877529086210503], [-76.97030494623618, 6.812734932467501], [-76.96412257900002, 6.680883390081421], [-76.76798500856619, 6.477991454274687], [-76.7169426899856, 6.171485179428415], [-76.2094680460601, 6.184548608239762], [-76.1726515806759, 6.017391195805161], [-76.0511279924933, 5.951328247425229], [-76.08695398999843, 5.688642278793847], [-76.00184570164464, 5.600647470877354], [-76.21142656716663, 5.348616175647512], [-76.06042059267389, 5.135854557990103], [-76.088695946205, 4.946136609040699], [-76.3121069427973, 4.750618883741846], [-76.36524926232882, 4.491627466664959], [-76.55512621730234, 4.399357291067618], [-76.4448767559113, 4.175693045418775], [-76.59128597702359, 3.9699871522139554], [-76.81531883129908, 4.007013071544131], [-76.95443445677788, 4.12065183877877], [-77.10483301859121, 4.107731264049407], [-77.25348516968613, 4.234153998058162], [-77.43580591123616, 4.1457852139542295], [-77.44962159306411, 4.03851345291122], [-77.52549730930377, 4.126376369566492], [-77.51665858514258, 4.276227881892882], [-77.4141050238669, 4.292872461138019], [-77.33764093811335, 4.429340513343888], [-77.29988298147502, 4.747077723827835], [-77.38983395109197, 5.44358817621595], [-77.5394736451194, 5.487234332942774], [-77.48977550595303, 5.607404111996454], [-77.34185772354743, 5.61733094010977], [-77.24335535646729, 5.7674660118298124], [-77.48274329738332, 6.192152366151753], [-77.47420363312615, 6.297279348661834], [-77.39526909248049, 6.2355626134001705], [-77.32528626099817, 6.549342422973612], [-77.40574457893871, 6.687075931155832], [-77.52662536298197, 6.648002869199564], [-77.58737064766146, 6.819006258175466], [-77.70201841062554, 6.842239118185745], [-77.65869108610171, 6.994856979979473], [-77.88377630125777, 7.216826964492226], [-77.79249999935513, 7.461014214422928], [-77.7007017104713, 7.506483876896811], [-77.72912484219748, 7.69547312813542], [-77.56345082678627, 7.507336543738676], [-77.33941515645994, 7.765954538697097], [-77.32476969706585, 7.895836410994283], [-77.15857512448386, 7.932259492793792], [-77.44792141497986, 8.473303117409616], [-77.40794743601809, 8.645346049846564], [-77.35795651769163, 8.675033123313172], [-77.24889639365892, 8.472049501589023], [-76.9801897512822, 8.255281794271037]]]}}, {"id": "12", "type": "Feature", "properties": {"DPTO_CNMBR": "HUILA"}, "geometry": {"type": "Polygon", "coordinates": [[[-74.43958715812195, 3.730633098781715], [-74.63053112677866, 3.4713014400367976], [-74.6732582360261, 3.186348156174622], [-75.14709710319094, 2.7220032990012593], [-75.18055808790893, 2.507708337570234], [-75.73714924258469, 1.782464397710368], [-76.12000624808779, 1.5521442094106905], [-76.2422543644461, 1.6830912899482189], [-76.3790615183083, 1.6654100918560069], [-76.37190640619228, 1.7425218971235732], [-76.59030684023314, 1.8681582457858394], [-76.5699147304607, 2.127079065496086], [-76.43091717272888, 2.12038771407472], [-76.37376724890883, 2.2790893917811204], [-76.14849577375531, 2.200946768591992], [-76.10361194342066, 2.4058419809971325], [-75.97936384754692, 2.503611024272737], [-75.88749726652388, 2.4251072240683516], [-75.81411564041382, 2.4836228964826117], [-75.75102595234604, 2.742181798289268], [-76.02899347326019, 2.9404902609210857], [-75.9912818192001, 2.982452433110241], [-75.84636278563481, 2.87108070012132], [-75.63291843869852, 2.995864170213515], [-75.52747635521757, 3.3182822848425984], [-75.36166665957886, 3.4088238450498385], [-75.0369609754658, 3.4295342737637253], [-75.07060673416238, 3.295296199515511], [-74.9069497582634, 3.290543898752045], [-74.53474407891564, 3.8432065953914667], [-74.43958715812195, 3.730633098781715]]]}}, {"id": "13", "type": "Feature", "properties": {"DPTO_CNMBR": "LA GUAJIRA"}, "geometry": {"type": "Polygon", "coordinates": [[[-72.90075025528671, 10.436109720922335], [-73.1443186534581, 10.398094297801567], [-73.18162302585664, 10.466472679574714], [-73.07631213648975, 10.63619684436021], [-73.27786011487345, 10.726125133375026], [-73.27993761334537, 10.85702957164804], [-73.59944651220114, 10.836634395001218], [-73.66494006450016, 10.989908949397714], [-73.57489592986262, 11.259700988619814], [-73.27669629811993, 11.285792125842574], [-72.76913728933778, 11.678828253666966], [-72.24445571825314, 11.878242639622714], [-72.13875449582284, 12.104636046983476], [-72.17898962648317, 12.217135052031946], [-71.96121402109839, 12.25772169927431], [-72.00085124154808, 12.186319567025546], [-71.92996369102491, 12.15112209470278], [-71.86154412114766, 12.217268096637731], [-71.95572449117826, 12.272877987403406], [-71.62745836691725, 12.407695090939503], [-71.73535172838733, 12.408994485526392], [-71.68476005651985, 12.453323425358038], [-71.22832722133512, 12.300578406602563], [-71.1361301675684, 12.002713541361341], [-71.32704352305379, 11.921154155636764], [-71.32412493601424, 11.833120768616572], [-71.97136323591444, 11.646266878769863], [-72.24941648296469, 11.140186007930254], [-72.49764988684713, 11.08586734535926], [-72.90075025528671, 10.436109720922335]]]}}, {"id": "14", "type": "Feature", "properties": {"DPTO_CNMBR": "MAGDALENA"}, "geometry": {"type": "Polygon", "coordinates": [[[-73.57489592986262, 11.259700988619814], [-73.66494127526884, 10.98986858213464], [-73.63866211821554, 10.787793090984987], [-73.5419073414705, 10.754718292631003], [-73.61688143942985, 10.644687932416991], [-73.56194938621375, 10.50567744520643], [-73.9218514550937, 10.375068847855761], [-74.08437106561391, 10.073056473998177], [-73.80909144181155, 9.692074682091155], [-73.80326414884047, 9.636416579176275], [-74.1391599900713, 9.493779960621275], [-73.97809479370652, 9.389381326601365], [-73.96203268081719, 9.187675888269593], [-73.86662226161572, 9.182968076096387], [-73.79802235113928, 9.0582979599107], [-73.8676551285202, 8.936489179754613], [-74.13941289685337, 9.029861527117157], [-74.43498618508646, 9.274147196999877], [-74.52990507228553, 9.24147130449532], [-74.62277517413898, 9.375833656216587], [-74.80801511967394, 9.451873502996955], [-74.78764598468425, 9.69686482275994], [-74.88236986421887, 9.872851248637119], [-74.7878801350327, 10.009399041638009], [-74.94659725875903, 10.139186715322312], [-74.7362417621317, 10.548723225215573], [-74.71833083107649, 10.908854726377673], [-74.85186053248921, 11.105367258036193], [-74.35084207819398, 10.976043709755142], [-74.21531577061165, 11.069269050731553], [-74.24168288769619, 11.220766767054625], [-74.14491794943632, 11.336938196874847], [-73.57489592986262, 11.259700988619814]]]}}, {"id": "15", "type": "Feature", "properties": {"DPTO_CNMBR": "META"}, "geometry": {"type": "Polygon", "coordinates": [[[-71.07752569541555, 2.882232412353595], [-71.32474234064075, 2.924527656639985], [-71.39072260952472, 2.8440266855079352], [-71.46338082958017, 2.899277686127621], [-71.65221259926055, 2.82018609360386], [-71.76185605049783, 2.8973037343008965], [-71.78004252301281, 2.8178253487559033], [-71.82061234904428, 2.879117264509383], [-71.98191802748981, 2.80118739445986], [-72.13517846959701, 2.8888739979318347], [-72.19286090629969, 2.772349222118507], [-72.25948685239177, 2.8247043212295053], [-72.53630940550421, 2.7027197902744904], [-72.58641398084605, 2.5836681377445125], [-72.81821266710608, 2.6139726926111972], [-73.11055319060691, 2.3809992013727825], [-73.38637848166549, 2.3239599515850036], [-73.5890410151475, 2.390069750619725], [-73.6610636889989, 2.2941093506855443], [-73.66002928237148, 1.6120620790211453], [-73.97923151834102, 1.604238182441522], [-74.21536365153563, 1.7666636933152315], [-74.56394516727288, 1.8484981128640652], [-74.65304574828185, 2.0658583534894848], [-74.59949115269512, 2.193763289445528], [-74.74871182396042, 2.2817525460770964], [-74.5888460276383, 2.6700216888777586], [-74.67131314938081, 2.887823287961456], [-74.89920686868618, 2.964148174347548], [-74.6732582360261, 3.186348156174622], [-74.63053112677866, 3.4713014400367976], [-74.29661663497681, 3.8189038475795773], [-74.21738298272548, 4.010896176657865], [-73.74259343484208, 4.198022778133621], [-73.81086758149975, 4.408132638898416], [-73.66165421652633, 4.546730938333763], [-73.56797551105491, 4.526499608901338], [-73.55068104046151, 4.307821285109746], [-73.35364488227528, 4.321194294499418], [-73.13763771525419, 4.212571695845196], [-73.05255695490268, 4.7363248049156335], [-72.69242208346294, 4.287572192991565], [-72.54783745477715, 4.3546750845587585], [-72.40503585016108, 4.317859741639488], [-72.243397908312, 4.434563175049726], [-71.99029580001032, 4.38353834939585], [-71.80674994003458, 4.5835476514270255], [-71.07793104512656, 4.899101333432929], [-71.07752569541555, 2.882232412353595]]]}}, {"id": "16", "type": "Feature", "properties": {"DPTO_CNMBR": "NARI\u00d1O"}, "geometry": {"type": "MultiPolygon", "coordinates": [[[[-78.89185596871583, 1.5097288787762704], [-78.88897610726535, 1.5092584600884327], [-78.89124325731831, 1.5093898055710622], [-78.89185596871583, 1.5097288787762704]]], [[[-78.14025780008387, 2.676152924245283], [-78.07245866337524, 2.6111616968693037], [-77.92833815322004, 2.6404040269567095], [-77.83864224533454, 2.178210976081323], [-77.48794162211121, 2.195252600002367], [-77.45943429714421, 2.286177709965669], [-77.32307702008787, 2.221996530846821], [-77.3335277321495, 2.0513616402088846], [-77.20315946749075, 1.952037598694969], [-77.3308799792018, 1.6815126932753823], [-76.93608470358915, 1.7290020567884214], [-76.83453426346648, 1.615424175435022], [-76.92892711464776, 1.500486126288164], [-76.90415224636138, 1.320942952385131], [-77.1000643092894, 1.15400104705992], [-77.02806688977549, 0.9949312705528298], [-77.18680573202326, 0.630954061881381], [-77.11735945924558, 0.5913613399925725], [-77.1126955342067, 0.3726744831100481], [-77.52772119943859, 0.40019436864826635], [-77.48089404176267, 0.65711636817604], [-77.66620350453792, 0.7052784250599903], [-77.66491992857331, 0.8180394081034582], [-77.93723440611815, 0.8166789375599682], [-78.18511940680858, 0.9380067920736043], [-78.31138897352555, 1.1913027552746782], [-78.42777924598124, 1.138806907971057], [-78.61542294201521, 1.2462686038993769], [-79.01007805045606, 1.6319746584716002], [-78.8096439142067, 1.8292844813580218], [-78.72574023159054, 1.8259191579760778], [-78.76216607643303, 1.741445735410705], [-78.55365228023197, 1.7577319865937497], [-78.58500462871136, 1.9726061274769888], [-78.67436685853586, 1.9800944296162575], [-78.6977944522093, 2.2324680842893234], [-78.4551755353244, 2.5975901572880713], [-78.14025780008387, 2.676152924245283]]]]}}, {"id": "17", "type": "Feature", "properties": {"DPTO_CNMBR": "NORTE DE SANTANDER"}, "geometry": {"type": "Polygon", "coordinates": [[[-72.04767334939866, 7.038302588741866], [-72.27652400981475, 7.012792371957142], [-72.39232798527429, 6.872214493494193], [-72.54736680621842, 6.885951258362345], [-72.56236645413372, 6.9997936042571], [-72.73403882103645, 6.98682532729847], [-72.83589555133219, 7.096614640205723], [-72.83683125007153, 7.35561008354533], [-72.98235477699207, 7.62030781117252], [-73.21903680779879, 7.632110965840511], [-73.25657104017597, 7.531573138079882], [-73.35534401202607, 7.544349892557049], [-73.63186370551131, 7.741426100756586], [-73.43930720037025, 7.696547152665458], [-73.27603233269855, 7.946046084569535], [-73.43536356218111, 8.145169770645186], [-73.34176510673366, 8.434682851026029], [-73.41439877057434, 8.459258384325848], [-73.44182709139172, 8.340884840167181], [-73.52999783665211, 8.38078982700522], [-73.47767132481064, 8.470115003941247], [-73.54770129591418, 8.471406184537097], [-73.577727689072, 8.495809957463278], [-73.41461794833603, 8.766029819865034], [-73.40444642717408, 9.162578704547382], [-73.17698152204568, 9.176636928609367], [-73.00940538841913, 9.29084667102351], [-72.94839721233292, 9.0923322306605], [-72.76580917843927, 9.105603008763595], [-72.65478619574762, 8.61427684042711], [-72.38012162736507, 8.310373015425217], [-72.34713392630434, 8.01638469615731], [-72.48806630673515, 7.943475426550354], [-72.47513691969984, 7.487210583626963], [-72.42859298512288, 7.402385096243762], [-72.1944500274926, 7.383795744892778], [-72.04767334939866, 7.038302588741866]]]}}, {"id": "18", "type": "Feature", "properties": {"DPTO_CNMBR": "QUINDIO"}, "geometry": {"type": "Polygon", "coordinates": [[[-75.38871062192212, 4.715441808490954], [-75.69346058870148, 4.135651822197877], [-75.83904134980237, 4.097565540159137], [-75.78730944311965, 4.294599647410617], [-75.80314851620672, 4.396065787946438], [-75.89502460244036, 4.417604800277763], [-75.84761931879191, 4.638669016111056], [-75.70846995310922, 4.655063982525199], [-75.70293741932343, 4.721360405317545], [-75.47937845189313, 4.663172530929903], [-75.38871062192212, 4.715441808490954]]]}}, {"id": "19", "type": "Feature", "properties": {"DPTO_CNMBR": "RISARALDA"}, "geometry": {"type": "Polygon", "coordinates": [[[-75.86802412562416, 5.490242125985312], [-75.86067798432961, 5.371708954196803], [-75.72522650906302, 5.3971415395227185], [-75.64814603467964, 5.307572010499329], [-75.82366414416721, 5.270118110910601], [-75.89216009328707, 4.961530422752876], [-75.81480708580507, 4.919438479209683], [-75.7468129703861, 5.04681902086926], [-75.70238478519099, 4.94550030023169], [-75.48008524068011, 4.916464206465852], [-75.37549906941328, 4.802684967862625], [-75.44119761967195, 4.681104147458897], [-75.85609931103951, 4.727830007331513], [-76.02771486468478, 4.938596695034773], [-76.06090975532089, 5.137100610640317], [-76.21142656716663, 5.348616175647512], [-76.03704395312658, 5.567172195236127], [-75.86802412562416, 5.490242125985312]]]}}, {"id": "20", "type": "Feature", "properties": {"DPTO_CNMBR": "SANTANDER"}, "geometry": {"type": "Polygon", "coordinates": [[[-73.63304263288734, 7.749194901377086], [-73.35534401202607, 7.544349892557049], [-73.25657104017597, 7.531573138079882], [-73.21903680779879, 7.632110965840511], [-72.98235477699207, 7.62030781117252], [-72.83683125007153, 7.35561008354533], [-72.83627674236234, 7.097333230321586], [-72.73403882103645, 6.98682532729847], [-72.56236645413372, 6.9997936042571], [-72.485535246916, 6.657101120689538], [-72.6215367836312, 6.441017088838537], [-72.80886373996879, 6.559205824590413], [-72.72488353531399, 6.456701817603755], [-72.74467753422313, 6.22918219933801], [-73.01124344652126, 5.963105015400259], [-73.03200938492172, 6.023000190556367], [-73.10077675512352, 5.962260960215137], [-73.19931453968879, 6.003134278261324], [-73.20431561549282, 5.826971383174387], [-73.35147171300714, 5.872571855329396], [-73.43080930913771, 5.767068564808079], [-73.45690332702334, 5.890356059578122], [-73.3707086981475, 6.00523217468518], [-73.49741541629149, 6.108032160496235], [-73.63590028353633, 5.911162379573609], [-73.64400972451064, 5.715205777726762], [-73.71438250131068, 5.781700866534505], [-73.98189624455296, 5.72073099799132], [-74.18041643897207, 5.911088567951176], [-74.2660811416258, 5.8345907902023635], [-74.25871622940555, 6.065524407539222], [-74.38305881196476, 6.040277892274798], [-74.52892129122772, 6.263871123956501], [-74.36949796213413, 6.412217322747914], [-74.40473599596228, 6.593854669252042], [-73.88420883864866, 7.005244745791598], [-73.91742851592731, 7.475973474976102], [-73.79731404922686, 7.65439496764446], [-73.86755275139976, 8.063615575851234], [-73.77526100746499, 8.14501013559103], [-73.67077797108188, 7.903500484211058], [-73.76179435855819, 7.759976027262768], [-73.63304263288734, 7.749194901377086]]]}}, {"id": "21", "type": "Feature", "properties": {"DPTO_CNMBR": "SUCRE"}, "geometry": {"type": "Polygon", "coordinates": [[[-74.7809453925463, 8.277881791322491], [-74.92599402887281, 8.499607675187839], [-75.00572085652023, 8.522802905273226], [-75.18513926482078, 8.396640496901098], [-75.31436382227433, 8.502373040890955], [-75.37161046627679, 8.826524067703547], [-75.15610851506703, 8.943597351900124], [-75.2241369891925, 9.073111502395626], [-75.44885677527347, 9.140080696820792], [-75.4965714418939, 9.285696683093322], [-75.70440410318243, 9.372208407545973], [-75.57061638693669, 9.617028906897664], [-75.70393844191202, 9.700526299387393], [-75.57362449396614, 10.086428059662802], [-75.49747758860737, 10.145482637358937], [-75.54332273709407, 10.040149364389011], [-75.33826145358205, 9.828226993235099], [-75.37437777034295, 9.630769875010738], [-75.16450565806551, 9.646466148228438], [-75.01239443284149, 9.528293675615135], [-75.03222927112988, 9.46656875409485], [-74.8907783287764, 9.430964062934498], [-74.95051410423602, 9.347947442909659], [-74.90302755021511, 9.16348223506659], [-74.63936084874453, 8.977455863083923], [-74.53965931483242, 8.805290830683527], [-74.6107338178471, 8.755937903893646], [-74.539732084409, 8.426392518831106], [-74.65348785129733, 8.278995640856023], [-74.7809453925463, 8.277881791322491]]]}}, {"id": "22", "type": "Feature", "properties": {"DPTO_CNMBR": "TOLIMA"}, "geometry": {"type": "Polygon", "coordinates": [[[-74.73427575880349, 5.2868647270234685], [-74.7059433077893, 4.981370212874635], [-74.89062890234449, 4.28873399273229], [-74.68125929092571, 4.200886653285918], [-74.51885728294138, 4.240493218520332], [-74.47485337121623, 4.127918987077017], [-74.55760296355436, 3.7670685114554217], [-74.90537398747752, 3.291358759324892], [-75.07060673416238, 3.295296199515511], [-75.0369609754658, 3.4295342737637253], [-75.36166665957886, 3.4088238450498385], [-75.52747635521757, 3.3182822848425984], [-75.63291843869852, 2.995864170213515], [-75.84013335577832, 2.8718968528504565], [-75.98858766633764, 2.9825432938655267], [-76.02899347326019, 2.9404902609210857], [-76.10574139983011, 3.1067815890098096], [-75.99373121340685, 3.6383689224081723], [-75.59669063356783, 4.280261194344247], [-75.52431823582624, 4.543435618115866], [-75.4156627601163, 4.621943609537548], [-75.31872212138576, 4.888072056913142], [-75.34475243077749, 5.080784947282308], [-75.11616332444953, 5.160606891411718], [-75.02809694203876, 5.2888260247865855], [-74.73427575880349, 5.2868647270234685]]]}}, {"id": "23", "type": "Feature", "properties": {"DPTO_CNMBR": "VALLE DEL CAUCA"}, "geometry": {"type": "MultiPolygon", "coordinates": [[[[-77.23256750867495, 4.031444080537435], [-77.22899831740462, 4.041854221027846], [-77.22642849958508, 4.039938756600744], [-77.23256750867495, 4.031444080537435]]], [[[-76.07918855249382, 5.04480078783971], [-75.90103888014649, 4.85292090002502], [-75.9232531300992, 4.760258746128205], [-75.70723569621155, 4.657076747762179], [-75.86686471476489, 4.6109928274161485], [-75.89493146747743, 4.417139115365529], [-75.78973512686541, 4.351783553620619], [-75.83904134980237, 4.097565540159137], [-75.73764469727736, 4.055111500854383], [-75.99373121340685, 3.6383689224081723], [-76.06137858163702, 3.2133772892887706], [-76.4604211144062, 3.3289411581192048], [-76.5136065213359, 3.1203451875407606], [-76.61012673945146, 3.091238525089753], [-76.73340928100912, 3.124887507526982], [-76.77291308161308, 3.2337056816805982], [-76.90804959904082, 3.2013703755293665], [-76.9384859690658, 3.1139620387025535], [-77.09839111252289, 3.185972449349519], [-77.23410234354549, 3.108080018927673], [-77.42907036617468, 3.2537087318127456], [-77.54832375182347, 3.2258954022410813], [-77.16563045830021, 3.6446855755724155], [-77.18179564582388, 3.8094022712437337], [-77.05287072287479, 3.874846509417058], [-77.28159260092319, 3.839440357466533], [-77.31752548149548, 3.950327094837468], [-77.19459992934446, 4.052762862510598], [-77.26859614369549, 4.077049024831246], [-77.35933275905332, 3.9266982449274406], [-77.43580591123616, 4.1457852139542295], [-77.25348516968613, 4.234153998058162], [-77.10483301859121, 4.107731264049407], [-76.95443445677788, 4.12065183877877], [-76.81531883129908, 4.007013071544131], [-76.58902549113206, 3.970700991372658], [-76.4448767559113, 4.175693045418775], [-76.55520527714154, 4.3991953670932995], [-76.36524926232882, 4.491627466664959], [-76.3121069427973, 4.750618883741846], [-76.13862640320407, 4.842014093239284], [-76.07918855249382, 5.04480078783971]]]]}}, {"id": "24", "type": "Feature", "properties": {"DPTO_CNMBR": "ARAUCA"}, "geometry": {"type": "Polygon", "coordinates": [[[-69.42755517305854, 6.1072969336903915], [-69.86378918126996, 6.041044414286856], [-70.15456348221339, 6.297162744205742], [-70.72648374281741, 6.2164141180243195], [-71.21953444886844, 6.298403318564364], [-71.95471397910204, 6.168989002678338], [-72.13967875902519, 6.066683700211752], [-72.27271777809098, 6.131222816316939], [-72.36662389513656, 6.30689156568618], [-72.13089513687919, 6.520588905315709], [-71.94885391674823, 7.011323102168411], [-71.74621611375743, 7.065732711181147], [-71.02204931044638, 6.974028045923924], [-70.6872143185077, 7.104380671115985], [-70.32238755151891, 6.93456794622149], [-70.11780200724114, 6.979412321193442], [-69.42755517305854, 6.1072969336903915]]]}}, {"id": "25", "type": "Feature", "properties": {"DPTO_CNMBR": "CASANARE"}, "geometry": {"type": "Polygon", "coordinates": [[[-72.33853933772006, 6.345551899340165], [-72.34387879690591, 6.226032078624135], [-72.13967875902519, 6.066683700211752], [-71.95471397910204, 6.168989002678338], [-71.22054826018065, 6.298307340579724], [-70.72578167426148, 6.216413651090048], [-70.36710592031828, 6.30272851731123], [-70.15456348221339, 6.297162744205742], [-69.83590992201965, 6.041260879415302], [-70.11494869803052, 5.631451077586108], [-70.36052292858506, 5.587024911284999], [-70.60321783890684, 5.423740059949434], [-70.94987311034208, 5.11771403079701], [-71.05733578185317, 4.905705721327951], [-71.80674994003458, 4.5835476514270255], [-71.99029580001032, 4.38353834939585], [-72.243397908312, 4.434563175049726], [-72.40503585016108, 4.317859741639488], [-72.54783745477715, 4.3546750845587585], [-72.6935977410635, 4.287475985955486], [-72.93792698621374, 4.522740793785637], [-73.07771915342242, 4.810741989093228], [-73.01984458279082, 5.001595163318741], [-72.90382123404608, 5.067931975321077], [-72.97389066850708, 5.1503644038818], [-72.88271031512782, 5.3632279454705], [-72.79832219486875, 5.380142863812507], [-72.70056665211467, 5.273278447115283], [-72.42090449598903, 5.563237950318696], [-72.29529191725602, 5.514952802310637], [-72.22142589909336, 5.676040323476846], [-72.46306759942586, 5.848494087310676], [-72.32766273448391, 5.901714704734284], [-72.32120409270165, 6.088204321545571], [-72.41894639531806, 6.186686889430636], [-72.33853933772006, 6.345551899340165]]]}}, {"id": "26", "type": "Feature", "properties": {"DPTO_CNMBR": "PUTUMAYO"}, "geometry": {"type": "Polygon", "coordinates": [[[-76.42635432195132, 0.9605730551553765], [-75.9251843021183, 1.0342575492386528], [-75.76227979689972, 0.8377620372201396], [-75.63635693877808, 0.8767383912958627], [-75.5080442819437, 0.768164220535378], [-75.26560146840855, 0.7256376464760028], [-75.21767048336216, 0.48745840358957476], [-75.10117750596272, 0.5119399433222516], [-74.98619709726955, 0.41850724979463755], [-75.00388804270553, 0.27320301962261956], [-74.6802348125302, 0.16497137446543184], [-74.67734440973909, -0.0605000783350873], [-74.34186599904456, -0.10965434500656027], [-74.24045202566803, -0.2346954132639817], [-73.84131793344324, -0.39797757951588414], [-74.42169863528596, -0.5612401241046197], [-74.60992718463667, -0.35321020903699013], [-74.72657254977263, -0.3489263925903017], [-74.78731525524266, -0.2010225885468265], [-74.88537626808066, -0.24556776370234742], [-75.17023035462255, -0.04499642646055564], [-75.27593020003746, -0.12738910134797737], [-75.63534326670302, 0.046688561925732154], [-75.80702903962394, 0.04684808656700545], [-76.01052712341973, 0.29883471363276415], [-76.27792546818996, 0.43593263458622294], [-76.41235272951016, 0.38128309582887476], [-76.42350623247863, 0.234770283068413], [-77.08027593197676, 0.28730362350720606], [-77.11735945924558, 0.5913613399925725], [-77.18680573202326, 0.630954061881381], [-77.02806688977549, 0.9949312705528298], [-77.1000643092894, 1.15400104705992], [-76.88680636490355, 1.371843588799582], [-76.64544421605927, 1.4551526571052378], [-76.53740639383493, 1.2103396491987939], [-76.56811972252802, 1.082572857081476], [-76.42635432195132, 0.9605730551553765]]]}}, {"id": "27", "type": "Feature", "properties": {"DPTO_CNMBR": "ARCHIPI\u00c9LAGO DE SAN ANDR\u00c9S, PROVIDENCIA Y SANTA CATALINA"}, "geometry": {"type": "MultiPolygon", "coordinates": [[[[-81.7323329647565, 12.555137789141359], [-81.68706065478017, 12.580910838190862], [-81.73008135494877, 12.480296346840921], [-81.7323329647565, 12.555137789141359]]], [[[-81.39232064244982, 13.358919644878142], [-81.34971747542073, 13.356871194116394], [-81.38916665808601, 13.320763534679383], [-81.39232064244982, 13.358919644878142]]], [[[-81.3796913719668, 13.391458198753085], [-81.36753701280956, 13.386053666228753], [-81.3767435508669, 13.381498328892132], [-81.3796913719668, 13.391458198753085]]]]}}, {"id": "28", "type": "Feature", "properties": {"DPTO_CNMBR": "AMAZONAS"}, "geometry": {"type": "Polygon", "coordinates": [[[-69.43297404755286, -1.069490935524052], [-69.39747692776254, -1.3609015122569403], [-69.95569209970024, -4.2328504892703975], [-70.16744818823459, -4.051505458951792], [-70.2881016523416, -3.8205942607983707], [-70.52003428643748, -3.8803547064205524], [-70.71324730431941, -3.795462916486449], [-70.07352527265773, -2.790903694745663], [-70.07660967531852, -2.6629551304186516], [-70.16237942735236, -2.7135574830876545], [-70.24457042288857, -2.5582485642277124], [-70.3583856581123, -2.56709210162158], [-70.30215993403614, -2.5046633213982563], [-70.43321919272599, -2.529289430688393], [-70.56517178130615, -2.4197954340421393], [-70.62820279174865, -2.4800788750694776], [-70.66370836104011, -2.359703334071332], [-70.87946427055219, -2.223285668952563], [-71.00248285372066, -2.211711961644773], [-70.99427377030756, -2.3087128556178773], [-71.12563375771153, -2.2859800274022373], [-71.17219957483765, -2.3811316010160573], [-71.29662814450937, -2.3473792354433307], [-71.39513443223069, -2.4114032907880105], [-71.45659102110643, -2.2785072362663343], [-71.49940848490066, -2.355533579093529], [-71.51842795381044, -2.2524043401385807], [-71.72922364538049, -2.2276596894607916], [-71.74154852156668, -2.1463474708391037], [-71.91972117860867, -2.380560382115114], [-72.04881610714034, -2.338813383972223], [-72.15656318379534, -2.4811285776364143], [-72.25132962151758, -2.431778598668028], [-72.37345545673543, -2.4925024421363946], [-72.4086476853871, -2.4159789781831815], [-72.63114381227034, -2.3596833184057395], [-72.68236171029496, -2.453374597089409], [-72.77491679413917, -2.3941498121927047], [-72.93328989852195, -2.457807650977371], [-72.97593167734986, -2.3446855769318184], [-73.1225552547037, -2.3274178290717855], [-73.17275446486717, -2.2206259174385594], [-73.06889693743899, -2.0882883748637844], [-73.14684376377407, -1.8051071310307436], [-73.21992019230112, -1.7499129874820043], [-73.31489914856742, -1.8287828488512385], [-73.534343307486, -1.7077433637960033], [-73.51646500162596, -1.63739797288854], [-73.46462324421226, -1.5896113199761623], [-73.45773852749126, -1.5710859740173948], [-73.58727892545615, -1.4240323184208523], [-73.57088011734012, -1.3218292289698599], [-73.74477880061762, -1.2008976492611285], [-73.76927839494029, -1.2627463217489292], [-73.86401425627169, -1.2293862809698535], [-74.02416708105066, -1.0063850185457934], [-74.08651619045116, -1.0543744185714599], [-74.27429714377728, -0.9798597843361062], [-74.32179904323644, -0.8792719324868169], [-74.2546489632428, -0.8219536835836213], [-74.37545411935442, -0.73549716338925], [-74.39634396545611, -0.580790805304479], [-73.72199421820596, -0.3804929246531763], [-73.56835520385658, -0.5168343140156131], [-73.33187629331837, -0.5061004528792741], [-73.20675702654941, -0.6256419013922702], [-73.07479201480858, -0.6212888004765591], [-73.02637028785954, -0.5268691898143333], [-72.91727827014728, -0.6155095169036185], [-72.7497288123079, -0.5549956259549802], [-72.55637220372009, -0.705840044000239], [-72.42496999956448, -0.5622897966719128], [-72.318313456942, -0.6517447319780748], [-72.24907264428273, -0.6137207184258808], [-72.15344433912115, -0.3553260643205047], [-72.04184957591876, -0.2691676164467249], [-71.71132606956827, -0.23437788259747006], [-71.70482631317077, -0.06729385070350659], [-71.57721976059675, 0.015743613682271763], [-71.45375190173945, -0.012226562809453797], [-71.18599806205127, 0.09725685550034319], [-71.13397983662202, 0.00416983680852362], [-70.9272545609656, -0.05175649155141359], [-70.8261870782737, -0.3657198456664788], [-70.73669632572977, -0.2867134110369282], [-70.57951492069259, -0.39199276455570603], [-70.51930303936481, -0.3576538717200976], [-70.45735353725061, -0.49548012176594725], [-70.20978540933612, -0.442094358680309], [-70.32523368204572, -0.5613425246425638], [-70.25613432759252, -0.6028557985878127], [-70.29712697873404, -0.7913193269088254], [-70.2212528887152, -0.8863456345944847], [-70.30712294541965, -0.964603715852903], [-70.19746846888567, -0.985065029470534], [-70.16864775359522, -1.1129152194951573], [-70.07914162345863, -1.03787758966163], [-70.12228221738502, -0.9723761217095201], [-70.01713287871998, -0.936933926176139], [-69.90198290138605, -0.9719269092656077], [-69.95505433427783, -1.0961436381863292], [-69.70512692949129, -1.0474356013727752], [-69.65891053133953, -1.2276641018339178], [-69.59253914605382, -1.1458357551583125], [-69.48149175621634, -1.2137513338604504], [-69.43297404755286, -1.069490935524052]]]}}, {"id": "29", "type": "Feature", "properties": {"DPTO_CNMBR": "GUAIN\u00cdA"}, "geometry": {"type": "Polygon", "coordinates": [[[-69.8457191120898, 1.713921053192945], [-70.18027152086364, 1.881878942411002], [-70.11901958029101, 2.110893050404311], [-69.99617601571418, 2.204796520034088], [-70.0452125318664, 2.2930532620120476], [-70.49681401238225, 2.2337418341804987], [-70.62999854200679, 2.312933051728253], [-70.7501873142164, 2.533914481862064], [-70.94249237982133, 2.6066561334044547], [-70.35590345407022, 2.8537204199870585], [-70.2553322528988, 3.039666462647788], [-70.31994670738558, 3.0863324557894134], [-70.17435609741833, 3.23580759991512], [-70.12798123623504, 3.202260877655275], [-70.12661195821426, 3.4008055578117484], [-69.94354559250029, 3.394751987417348], [-69.96027962421607, 3.4569205510380687], [-69.87173452084865, 3.4393536810755863], [-69.89355580161592, 3.5368546731763395], [-69.81720918919305, 3.4770482491543007], [-69.84389147133813, 3.5489666069509695], [-69.80192257616918, 3.507862187216188], [-69.73991894211079, 3.590930866053037], [-69.59260188314822, 3.5677363038680743], [-69.58903194193635, 3.683333281104493], [-69.30350552073301, 3.717256468744741], [-69.29198258790461, 3.6447873725008835], [-69.27967753630517, 3.7262945262663427], [-69.18669243733888, 3.633916194262178], [-69.05594244147416, 3.638655850595655], [-68.93762182259346, 3.7423593072142016], [-68.83499382955671, 3.6701014383893398], [-68.85211682467238, 3.7386996072014473], [-68.75430131197167, 3.7831175163847766], [-68.55061547328799, 3.7639835867240627], [-68.56930075556127, 3.817967350301411], [-68.39471272878482, 3.8507708495193773], [-68.43661454388597, 3.9149964231138035], [-68.34672261697958, 3.924069180754486], [-68.34457380604043, 3.9931892709656513], [-68.1305283502857, 4.0009488645416], [-68.07897885920157, 3.9351515751311767], [-68.03453251938828, 4.011355486705984], [-67.91357085844379, 3.9094380384986835], [-67.70760159615624, 4.045025829064801], [-67.63442657076159, 3.7855500101632598], [-67.50128594665117, 3.7674487952400226], [-67.31078464902032, 3.377893368421247], [-67.86282945022927, 2.864865687717752], [-67.86411074470503, 2.7894721445406376], [-67.6143864121721, 2.811549974513988], [-67.56189609900497, 2.6557852845327674], [-67.48522487341081, 2.6658044813734127], [-67.1879022802852, 2.350310217844857], [-67.22197113787594, 2.25424705731283], [-67.10802186071875, 2.1193043373636624], [-67.12299579683445, 1.976885880722852], [-66.85055275577062, 1.2235971022564296], [-67.09299008987935, 1.17086370315378], [-67.15614969676372, 1.3171680971279622], [-67.07485320242428, 1.370072376278199], [-67.12755755966275, 1.776777985290067], [-67.22022635795422, 1.917907686947008], [-67.3031146840689, 1.9006304011255035], [-67.39456991898379, 2.232695419880886], [-67.57391912019608, 2.162317883116369], [-67.65835077912651, 1.9904656656659796], [-67.77549774150297, 2.034927122059472], [-67.92170537661661, 1.892710403863135], [-67.9077091787527, 1.804787934258297], [-68.03098026489235, 1.811007582740259], [-68.19902258419177, 2.0386551089535967], [-68.28525495344562, 1.8296747326898737], [-68.16329213393428, 1.727788332813997], [-69.53453336844254, 1.7770453245889575], [-69.8457191120898, 1.713921053192945]]]}}, {"id": "30", "type": "Feature", "properties": {"DPTO_CNMBR": "GUAVIARE"}, "geometry": {"type": "Polygon", "coordinates": [[[-71.32474234064075, 2.924527656639985], [-70.70916531510736, 2.7371090261729054], [-70.66005458978978, 2.8574132471649256], [-70.50115263361562, 2.787987388190857], [-70.93004660147147, 2.5732257249144475], [-70.75405503017629, 2.536989502845511], [-70.49842466542796, 2.2343754891871415], [-70.31223147663717, 2.2082608544269124], [-70.04704009745754, 2.294160878318211], [-70.0059450701358, 2.1826929697146613], [-70.18102390284854, 2.0247567454950843], [-70.63653346669174, 1.9032228197928414], [-70.8944526649917, 1.9276998833961296], [-71.25861937707008, 1.6679716975561123], [-71.39817629180192, 1.7337113951317105], [-71.39017999947595, 1.5982000070589786], [-71.55251971141716, 1.2769047088091543], [-71.48505291366705, 1.1088231275490186], [-71.55622767202448, 1.155495103930082], [-71.58525072803282, 1.044587707688547], [-71.74028548226966, 0.9848242307174799], [-72.0485581175462, 0.6562005762568361], [-72.12670091813513, 0.7401220027014013], [-72.22092079156887, 0.70629376086005], [-72.455681890194, 1.0798636655422427], [-72.6499027614064, 1.18181442297774], [-72.8592497624514, 1.1647757754211883], [-72.86718942022588, 1.0244616440984193], [-73.07671959285125, 0.8944293058118138], [-73.3974986905451, 1.1530911679729892], [-73.66390880218555, 1.5933573668431433], [-73.61850009762567, 2.376722599095905], [-73.35670684952795, 2.32409504371613], [-73.11055319060691, 2.3809992013727825], [-72.81821266710608, 2.6139726926111972], [-72.58641398084605, 2.5836681377445125], [-72.53630940550421, 2.7027197902744904], [-72.25948685239177, 2.8247043212295053], [-72.19286090629969, 2.772349222118507], [-72.13517846959701, 2.8888739979318347], [-71.98191802748981, 2.80118739445986], [-71.82061234904428, 2.879117264509383], [-71.78004252301281, 2.8178253487559033], [-71.76185605049783, 2.8973037343008965], [-71.65221259926055, 2.82018609360386], [-71.46338082958017, 2.899277686127621], [-71.39072260952472, 2.8440266855079352], [-71.32474234064075, 2.924527656639985]]]}}, {"id": "31", "type": "Feature", "properties": {"DPTO_CNMBR": "VAUP\u00c9S"}, "geometry": {"type": "Polygon", "coordinates": [[[-70.10960354006998, 2.080050213455366], [-70.17556491521549, 1.8700915281711137], [-69.8457191120898, 1.713921053192945], [-69.84658651995998, 1.0778346578864508], [-69.32091480906001, 1.0880854648837492], [-69.13658504257249, 0.8768401667863736], [-69.18779504256842, 0.7329843032167382], [-69.12057824963165, 0.6337532485436445], [-69.35314985453384, 0.614306915251888], [-69.48077955876924, 0.735582479720188], [-69.60668448176223, 0.6132630868789939], [-69.67107619992466, 0.6678979975243613], [-69.80283647188476, 0.5718677107531255], [-70.04647625794904, 0.5631898950834092], [-70.06522743745172, -0.1644991663515513], [-69.60848809377596, -0.5005867121809795], [-69.56199229350067, -0.6367209956376286], [-69.62559509643343, -0.7456458480134988], [-69.41817714460929, -0.9990299629859689], [-69.49039663086691, -1.2168603342548454], [-69.59253914605382, -1.1458357551583125], [-69.66652913507532, -1.2250664535403015], [-69.64967236437694, -1.1157855883416117], [-69.74952004069024, -1.0276210168831212], [-69.74536642248933, -1.09750033612825], [-69.83032588140973, -1.0277834252179063], [-69.96088758924977, -1.0933038383011406], [-69.93934574711929, -0.946711772965267], [-70.10528081829818, -0.9557995443325047], [-70.079333791506, -1.0383743745811664], [-70.16951881402785, -1.112295645385432], [-70.19746846888567, -0.985065029470534], [-70.30712294541965, -0.964603715852903], [-70.2212528887152, -0.8863456345944847], [-70.29712697873404, -0.7913193269088254], [-70.25613432759252, -0.6028557985878127], [-70.32523368204572, -0.5613425246425638], [-70.21159646663202, -0.4401196706073446], [-70.45735353725061, -0.49548012176594725], [-70.51930303936481, -0.3576538717200976], [-70.57951492069259, -0.39199276455570603], [-70.73669632572977, -0.2867134110369282], [-70.8261870782737, -0.3657198456664788], [-70.96889609330341, -0.009306385914427374], [-71.03108886658214, -0.047444101569965924], [-71.18431353449472, 0.09705470918347128], [-71.29266237359468, 0.0683503544053567], [-71.39959621210474, 0.18586302627429932], [-71.52970915427719, 0.11989691192782359], [-71.56077185195498, 0.21625191239814334], [-71.6361488300335, 0.182972109373293], [-71.76696121047722, 0.3696001485654505], [-71.85313388589402, 0.35235616512454454], [-71.82341754153619, 0.4057416492554762], [-72.03319222285366, 0.6642775189796103], [-71.74028548226966, 0.9848242307174799], [-71.58514693532395, 1.044694144500831], [-71.55622767202448, 1.155495103930082], [-71.48505291366705, 1.1088231275490186], [-71.55251971141716, 1.2769047088091543], [-71.39017999947595, 1.5982000070589786], [-71.39817629180192, 1.7337113951317105], [-71.25861937707008, 1.6679716975561123], [-70.87963715261195, 1.9331600213743643], [-70.63614224105865, 1.9032908580175396], [-70.10960354006998, 2.080050213455366]]]}}, {"id": "32", "type": "Feature", "properties": {"DPTO_CNMBR": "VICHADA"}, "geometry": {"type": "Polygon", "coordinates": [[[-67.70760159615624, 4.045025829064801], [-67.91357085844379, 3.9094380384986835], [-68.03453251938828, 4.011355486705984], [-68.07897885920157, 3.9351515751311767], [-68.1305283502857, 4.0009488645416], [-68.34457380604043, 3.9931892709656513], [-68.34672261697958, 3.924069180754486], [-68.43661454388597, 3.9149964231138035], [-68.39471272878482, 3.8507708495193773], [-68.56930075556127, 3.817967350301411], [-68.55061547328799, 3.7639835867240627], [-68.75430131197167, 3.7831175163847766], [-68.85211682467238, 3.7386996072014473], [-68.83499382955671, 3.6701014383893398], [-68.93762182259346, 3.7423593072142016], [-69.05594244147416, 3.638655850595655], [-69.18669243733888, 3.633916194262178], [-69.27967753630517, 3.7262945262663427], [-69.29198258790461, 3.6447873725008835], [-69.30350552073301, 3.717256468744741], [-69.58903194193635, 3.683333281104493], [-69.59260188314822, 3.5677363038680743], [-69.73991894211079, 3.590930866053037], [-69.80192257616918, 3.507862187216188], [-69.84389147133813, 3.5489666069509695], [-69.81720918919305, 3.4770482491543007], [-69.89355580161592, 3.5368546731763395], [-69.87173452084865, 3.4393536810755863], [-69.96027962421607, 3.4569205510380687], [-69.94354559250029, 3.394751987417348], [-70.12661195821426, 3.4008055578117484], [-70.1291282583814, 3.2000353020147694], [-70.17435609741833, 3.23580759991512], [-70.32156206979005, 3.0832213900083216], [-70.25533225268825, 3.0423587283165374], [-70.2790840485739, 2.935266253443475], [-70.4975766316114, 2.78850767980651], [-70.66005458978978, 2.8574132471649256], [-70.70916531510736, 2.7371090261729054], [-71.07752569541555, 2.882232412353595], [-71.07793104512656, 4.899101333432929], [-70.94987311034208, 5.11771403079701], [-70.60321783890684, 5.423740059949434], [-70.36052292858506, 5.587024911284999], [-70.11494869803052, 5.631451077586108], [-69.80418081130098, 6.055369719490829], [-69.54154856951608, 6.043653390977574], [-69.34465521781482, 6.144379281138807], [-69.23860897306635, 6.079534202865549], [-69.04617754215434, 6.2216982196407855], [-68.64484501139215, 6.129152470725145], [-68.02753799763262, 6.196109169862003], [-67.81025957718474, 6.324303972088583], [-67.46752711111895, 6.206302605827456], [-67.41000783668365, 5.9948258121796], [-67.59735998471469, 5.827751835860834], [-67.62485616621817, 5.476203247399491], [-67.84951036714273, 5.303959711633983], [-67.85722970726516, 4.524694279033089], [-67.70760159615624, 4.045025829064801]]]}}]}